{"fetched_at":"2026-07-23T17:55:06.836Z","source":"https://celestrak.org/NORAD/elements/gp.php?GROUP=kuiper&FORMAT=JSON","constellation":"kuiper","records":[{"OBJECT_NAME":"KUIPER-00027","OBJECT_ID":"2025-088S","EPOCH":"2026-07-23T07:52:05.325888","CLASSIFICATION_TYPE":"U","MEAN_MOTION":14.79944321,"ECCENTRICITY":0.00004179,"INCLINATION":51.9004,"RA_OF_ASC_NODE":215.8073,"ARG_OF_PERICENTER":50.6992,"MEAN_ANOMALY":309.4007,"EPHEMERIS_TYPE":0,"NORAD_CAT_ID":63740,"ELEMENT_SET_NO":999,"REV_AT_EPOCH":6770,"BSTAR":0.00016057448,"MEAN_MOTION_DOT":0.00001004,"MEAN_MOTION_DDOT":0},{"OBJECT_NAME":"KUIPER-00028","OBJECT_ID":"2025-088T","EPOCH":"2026-07-22T10:03:11.048832","CLASSIFICATION_TYPE":"U","MEAN_MOTION":14.79942269,"ECCENTRICITY":0.0000344,"INCLINATION":51.8988,"RA_OF_ASC_NODE":217.2763,"ARG_OF_PERICENTER":56.7028,"MEAN_ANOMALY":303.3967,"EPHEMERIS_TYPE":0,"NORAD_CAT_ID":63741,"ELEMENT_SET_NO":999,"REV_AT_EPOCH":6801,"BSTAR":0.000082603048,"MEAN_MOTION_DOT":0.00000409,"MEAN_MOTION_DDOT":0},{"OBJECT_NAME":"KUIPER-00029","OBJECT_ID":"2025-088U","EPOCH":"2026-07-23T01:41:04.947360","CLASSIFICATION_TYPE":"U","MEAN_MOTION":14.79948272,"ECCENTRICITY":0.00006887,"INCLINATION":51.8996,"RA_OF_ASC_NODE":213.0827,"ARG_OF_PERICENTER":345.6243,"MEAN_ANOMALY":14.4699,"EPHEMERIS_TYPE":0,"NORAD_CAT_ID":63742,"ELEMENT_SET_NO":999,"REV_AT_EPOCH":6765,"BSTAR":0.00023898453,"MEAN_MOTION_DOT":0.00001602,"MEAN_MOTION_DDOT":0},{"OBJECT_NAME":"KUIPER-00030","OBJECT_ID":"2025-088V","EPOCH":"2026-07-23T02:37:05.218752","CLASSIFICATION_TYPE":"U","MEAN_MOTION":14.79938178,"ECCENTRICITY":0.00002511,"INCLINATION":51.9007,"RA_OF_ASC_NODE":231.7353,"ARG_OF_PERICENTER":77.6897,"MEAN_ANOMALY":282.4094,"EPHEMERIS_TYPE":0,"NORAD_CAT_ID":63743,"ELEMENT_SET_NO":999,"REV_AT_EPOCH":6768,"BSTAR":0.00010573992,"MEAN_MOTION_DOT":0.00000585,"MEAN_MOTION_DDOT":0},{"OBJECT_NAME":"KUIPER-00031","OBJECT_ID":"2025-088W","EPOCH":"2026-07-23T06:00:02.000160","CLASSIFICATION_TYPE":"U","MEAN_MOTION":14.79831796,"ECCENTRICITY":0.00013377,"INCLINATION":51.8986,"RA_OF_ASC_NODE":216.1354,"ARG_OF_PERICENTER":67.2356,"MEAN_ANOMALY":58.4701,"EPHEMERIS_TYPE":0,"NORAD_CAT_ID":63744,"ELEMENT_SET_NO":999,"REV_AT_EPOCH":540,"BSTAR":0.0019737085,"MEAN_MOTION_DOT":0.00014822,"MEAN_MOTION_DDOT":0},{"OBJECT_NAME":"KUIPER-00032","OBJECT_ID":"2025-088X","EPOCH":"2026-07-22T23:13:25.962240","CLASSIFICATION_TYPE":"U","MEAN_MOTION":15.41103959,"ECCENTRICITY":0.00029733,"INCLINATION":51.866,"RA_OF_ASC_NODE":88.0922,"ARG_OF_PERICENTER":234.4736,"MEAN_ANOMALY":125.5975,"EPHEMERIS_TYPE":0,"NORAD_CAT_ID":63745,"ELEMENT_SET_NO":999,"REV_AT_EPOCH":7038,"BSTAR":0.00038723219,"MEAN_MOTION_DOT":0.00015911,"MEAN_MOTION_DDOT":0},{"OBJECT_NAME":"KUIPER-00033","OBJECT_ID":"2025-088Y","EPOCH":"2026-07-23T03:02:25.253952","CLASSIFICATION_TYPE":"U","MEAN_MOTION":14.79940041,"ECCENTRICITY":0.00002103,"INCLINATION":51.8999,"RA_OF_ASC_NODE":246.6799,"ARG_OF_PERICENTER":69.5625,"MEAN_ANOMALY":290.536,"EPHEMERIS_TYPE":0,"NORAD_CAT_ID":63746,"ELEMENT_SET_NO":999,"REV_AT_EPOCH":6767,"BSTAR":0.00030826085,"MEAN_MOTION_DOT":0.0000213,"MEAN_MOTION_DDOT":0},{"OBJECT_NAME":"KUIPER-00034","OBJECT_ID":"2025-088Z","EPOCH":"2026-07-23T07:15:09.762048","CLASSIFICATION_TYPE":"U","MEAN_MOTION":14.79937672,"ECCENTRICITY":0.00006458,"INCLINATION":51.9008,"RA_OF_ASC_NODE":208.4376,"ARG_OF_PERICENTER":52.6696,"MEAN_ANOMALY":307.4325,"EPHEMERIS_TYPE":0,"NORAD_CAT_ID":63747,"ELEMENT_SET_NO":999,"REV_AT_EPOCH":6790,"BSTAR":0.000082586275,"MEAN_MOTION_DOT":0.00000409,"MEAN_MOTION_DDOT":0},{"OBJECT_NAME":"KUIPER-00035","OBJECT_ID":"2025-088AA","EPOCH":"2026-07-22T11:09:25.015104","CLASSIFICATION_TYPE":"U","MEAN_MOTION":14.7993564,"ECCENTRICITY":0.0000265,"INCLINATION":51.8991,"RA_OF_ASC_NODE":237.1143,"ARG_OF_PERICENTER":58.5295,"MEAN_ANOMALY":301.5693,"EPHEMERIS_TYPE":0,"NORAD_CAT_ID":63748,"ELEMENT_SET_NO":999,"REV_AT_EPOCH":6748,"BSTAR":0.00009744879,"MEAN_MOTION_DOT":0.00000522,"MEAN_MOTION_DDOT":0},{"OBJECT_NAME":"KUIPER-00037","OBJECT_ID":"2025-088AB","EPOCH":"2026-07-22T10:59:10.598784","CLASSIFICATION_TYPE":"U","MEAN_MOTION":14.79943833,"ECCENTRICITY":0.00002832,"INCLINATION":51.8999,"RA_OF_ASC_NODE":236.0027,"ARG_OF_PERICENTER":44.2369,"MEAN_ANOMALY":315.8616,"EPHEMERIS_TYPE":0,"NORAD_CAT_ID":63749,"ELEMENT_SET_NO":999,"REV_AT_EPOCH":6828,"BSTAR":0.00010153211,"MEAN_MOTION_DOT":0.00000553,"MEAN_MOTION_DDOT":0},{"OBJECT_NAME":"KUIPER-00038","OBJECT_ID":"2025-088AC","EPOCH":"2026-07-23T07:48:14.273280","CLASSIFICATION_TYPE":"U","MEAN_MOTION":14.79932713,"ECCENTRICITY":0.00011717,"INCLINATION":51.9014,"RA_OF_ASC_NODE":218.3344,"ARG_OF_PERICENTER":295.1691,"MEAN_ANOMALY":64.9149,"EPHEMERIS_TYPE":0,"NORAD_CAT_ID":63750,"ELEMENT_SET_NO":999,"REV_AT_EPOCH":6760,"BSTAR":-0.00003029166,"MEAN_MOTION_DOT":-0.00000452,"MEAN_MOTION_DDOT":0},{"OBJECT_NAME":"KUIPER-00039","OBJECT_ID":"2025-134A","EPOCH":"2026-07-22T19:48:01.556064","CLASSIFICATION_TYPE":"U","MEAN_MOTION":14.79949886,"ECCENTRICITY":0.00006125,"INCLINATION":51.9024,"RA_OF_ASC_NODE":355.5425,"ARG_OF_PERICENTER":124.7855,"MEAN_ANOMALY":235.3165,"EPHEMERIS_TYPE":0,"NORAD_CAT_ID":64500,"ELEMENT_SET_NO":999,"REV_AT_EPOCH":6008,"BSTAR":0.00053742464,"MEAN_MOTION_DOT":0.0000388,"MEAN_MOTION_DDOT":0},{"OBJECT_NAME":"KUIPER-00040","OBJECT_ID":"2025-134B","EPOCH":"2026-07-22T10:37:39.585792","CLASSIFICATION_TYPE":"U","MEAN_MOTION":14.79952153,"ECCENTRICITY":0.00006569,"INCLINATION":51.8993,"RA_OF_ASC_NODE":7.3081,"ARG_OF_PERICENTER":124.8728,"MEAN_ANOMALY":235.2296,"EPHEMERIS_TYPE":0,"NORAD_CAT_ID":64501,"ELEMENT_SET_NO":999,"REV_AT_EPOCH":5988,"BSTAR":0.00044776477,"MEAN_MOTION_DOT":0.00003195,"MEAN_MOTION_DDOT":0},{"OBJECT_NAME":"KUIPER-00041","OBJECT_ID":"2025-134C","EPOCH":"2026-07-23T03:34:47.350560","CLASSIFICATION_TYPE":"U","MEAN_MOTION":14.7995636,"ECCENTRICITY":0.00005815,"INCLINATION":51.8999,"RA_OF_ASC_NODE":6.5712,"ARG_OF_PERICENTER":113.3401,"MEAN_ANOMALY":246.7623,"EPHEMERIS_TYPE":0,"NORAD_CAT_ID":64502,"ELEMENT_SET_NO":999,"REV_AT_EPOCH":5995,"BSTAR":0.00049776081,"MEAN_MOTION_DOT":0.00003578,"MEAN_MOTION_DDOT":0},{"OBJECT_NAME":"KUIPER-00042","OBJECT_ID":"2025-134D","EPOCH":"2026-07-22T20:24:58.651776","CLASSIFICATION_TYPE":"U","MEAN_MOTION":14.79951537,"ECCENTRICITY":0.00005935,"INCLINATION":51.9006,"RA_OF_ASC_NODE":2.8664,"ARG_OF_PERICENTER":140.5074,"MEAN_ANOMALY":219.5932,"EPHEMERIS_TYPE":0,"NORAD_CAT_ID":64503,"ELEMENT_SET_NO":999,"REV_AT_EPOCH":5998,"BSTAR":0.00048415421,"MEAN_MOTION_DOT":0.00003473,"MEAN_MOTION_DDOT":0},{"OBJECT_NAME":"KUIPER-00043","OBJECT_ID":"2025-134E","EPOCH":"2026-07-22T18:59:21.678432","CLASSIFICATION_TYPE":"U","MEAN_MOTION":14.79958097,"ECCENTRICITY":0.00005654,"INCLINATION":51.903,"RA_OF_ASC_NODE":355.6328,"ARG_OF_PERICENTER":131.7102,"MEAN_ANOMALY":228.3909,"EPHEMERIS_TYPE":0,"NORAD_CAT_ID":64504,"ELEMENT_SET_NO":999,"REV_AT_EPOCH":6008,"BSTAR":0.00050504062,"MEAN_MOTION_DOT":0.00003633,"MEAN_MOTION_DDOT":0}]}
