KUIPER-00027            
1 63740U 25088S   26204.32783942  .00001004  00000+0  16057-3 0  9991
2 63740  51.9004 215.8073 0000417  50.6992 309.4007 14.79944321 67707
KUIPER-00028            
1 63741U 25088T   26203.41887788  .00000409  00000+0  82603-4 0  9993
2 63741  51.8988 217.2763 0000344  56.7028 303.3967 14.79942269 68018
KUIPER-00029            
1 63742U 25088U   26204.07019615  .00001602  00000+0  23898-3 0  9999
2 63742  51.8996 213.0827 0000688 345.6243  14.4699 14.79948272 67654
KUIPER-00030            
1 63743U 25088V   26204.10908818  .00000585  00000+0  10574-3 0  9992
2 63743  51.9007 231.7353 0000251  77.6897 282.4094 14.79938178 67686
KUIPER-00031            
1 63744U 25088W   26204.25002315  .00014822  00000+0  19737-2 0  9994
2 63744  51.8986 216.1354 0001337  67.2356  58.4701 14.79831796  5407
KUIPER-00032            
1 63745U 25088X   26203.96766160  .00015911  00000+0  38723-3 0  9994
2 63745  51.8660  88.0922 0002973 234.4736 125.5975 15.41103959 70382
KUIPER-00033            
1 63746U 25088Y   26204.12668118  .00002130  00000+0  30826-3 0  9993
2 63746  51.8999 246.6799 0000210  69.5625 290.5360 14.79940041 67678
KUIPER-00034            
1 63747U 25088Z   26204.30219632  .00000409  00000+0  82586-4 0  9995
2 63747  51.9008 208.4376 0000645  52.6696 307.4325 14.79937672 67902
KUIPER-00035            
1 63748U 25088AA  26203.46487286  .00000522  00000+0  97449-4 0  9994
2 63748  51.8991 237.1143 0000265  58.5295 301.5693 14.79935640 67481
KUIPER-00037            
1 63749U 25088AB  26203.45776156  .00000553  00000+0  10153-3 0  9991
2 63749  51.8999 236.0027 0000283  44.2369 315.8616 14.79943833 68288
KUIPER-00038            
1 63750U 25088AC  26204.32516520 -.00000452  00000+0 -30292-4 0  9994
2 63750  51.9014 218.3344 0001171 295.1691  64.9149 14.79932713 67609
KUIPER-00039            
1 64500U 25134A   26203.82501801  .00003880  00000+0  53742-3 0  9990
2 64500  51.9024 355.5425 0000612 124.7855 235.3165 14.79949886 60082
KUIPER-00040            
1 64501U 25134B   26203.44281928  .00003195  00000+0  44776-3 0  9990
2 64501  51.8993   7.3081 0000656 124.8728 235.2296 14.79952153 59886
KUIPER-00041            
1 64502U 25134C   26204.14915915  .00003578  00000+0  49776-3 0  9999
2 64502  51.8999   6.5712 0000581 113.3401 246.7623 14.79956360 59956
KUIPER-00042            
1 64503U 25134D   26203.85067884  .00003473  00000+0  48415-3 0  9993
2 64503  51.9006   2.8664 0000593 140.5074 219.5932 14.79951537 59988
KUIPER-00043            
1 64504U 25134E   26203.79122313  .00003633  00000+0  50504-3 0  9996
2 64504  51.9030 355.6328 0000565 131.7102 228.3909 14.79958097 60088
